{
    "links": {
        "self": "http://www.neowsapp.com/rest/v1/neo/54016359?api_key=iIulBulltgU6a56xZRHN4H3l9WmuAYTsLGpBGhQ2"
    },
    "id": "54016359",
    "neo_reference_id": "54016359",
    "name": "(2020 FO4)",
    "designation": "2020 FO4",
    "nasa_jpl_url": "http://ssd.jpl.nasa.gov/sbdb.cgi?sstr=54016359",
    "absolute_magnitude_h": 27.019,
    "estimated_diameter": {
        "kilometers": {
            "estimated_diameter_min": 0.0104895046,
            "estimated_diameter_max": 0.0234552453
        },
        "meters": {
            "estimated_diameter_min": 10.4895045724,
            "estimated_diameter_max": 23.4552452742
        },
        "miles": {
            "estimated_diameter_min": 0.0065178739,
            "estimated_diameter_max": 0.0145744092
        },
        "feet": {
            "estimated_diameter_min": 34.4143861814,
            "estimated_diameter_max": 76.9529069055
        }
    },
    "is_potentially_hazardous_asteroid": false,
    "close_approach_data": [
        {
            "close_approach_date": "2020-03-09",
            "close_approach_date_full": "2020-Mar-09 20:09",
            "epoch_date_close_approach": 1583784540000,
            "relative_velocity": {
                "kilometers_per_second": "5.0700726403",
                "kilometers_per_hour": "18252.2615052444",
                "miles_per_hour": "11341.2454891892"
            },
            "miss_distance": {
                "astronomical": "0.0217048128",
                "lunar": "8.4431721792",
                "kilometers": "3246993.763628736",
                "miles": "2017588.3679031168"
            },
            "orbiting_body": "Earth"
        }
    ],
    "orbital_data": {
        "orbit_id": "2",
        "orbit_determination_date": "2020-03-29 05:56:38",
        "first_observation_date": "2020-03-21",
        "last_observation_date": "2020-03-24",
        "data_arc_in_days": 3,
        "observations_used": 13,
        "orbit_uncertainty": "8",
        "minimum_orbit_intersection": ".0206934",
        "jupiter_tisserand_invariant": "4.405",
        "epoch_osculation": "2458931.5",
        "eccentricity": ".3473692747547953",
        "semi_major_axis": "1.535646394932931",
        "inclination": "4.073533165588201",
        "ascending_node_longitude": "182.2397231167346",
        "orbital_period": "695.0807542124888",
        "perihelion_distance": "1.002210020445263",
        "perihelion_argument": "335.5420494514388",
        "aphelion_distance": "2.0690827694206",
        "perihelion_time": "2458907.891005238360",
        "mean_anomaly": "12.2276988143915",
        "mean_motion": ".5179254321433084",
        "equinox": "J2000",
        "orbit_class": {
            "orbit_class_type": "APO",
            "orbit_class_description": "Near-Earth asteroid orbits which cross the Earth’s orbit similar to that of 1862 Apollo",
            "orbit_class_range": "a (semi-major axis) > 1.0 AU; q (perihelion) < 1.017 AU"
        }
    },
    "is_sentry_object": false
}